<?xml version="1.0" encoding="UTF-8"?>
<kml xmlns="http://www.opengis.net/kml/2.2"><Document>
<name>가오슝 3박4일 — 부부 2쌍</name>
<description>aquapado.com/travel/kaohsiung/ 에서 뽑았습니다 (2026-09-06)</description>
<Style id="s_see"><IconStyle><color>ffE0782E</color><scale>1.1</scale><Icon><href>https://maps.google.com/mapfiles/kml/shapes/camera.png</href></Icon></IconStyle><LabelStyle><scale>0.9</scale></LabelStyle></Style>
<Style id="s_food"><IconStyle><color>ff3B37DB</color><scale>1.1</scale><Icon><href>https://maps.google.com/mapfiles/kml/shapes/dining.png</href></Icon></IconStyle><LabelStyle><scale>0.9</scale></LabelStyle></Style>
<Style id="s_cafe"><IconStyle><color>ff1F7BC4</color><scale>1.1</scale><Icon><href>https://maps.google.com/mapfiles/kml/shapes/coffee.png</href></Icon></IconStyle><LabelStyle><scale>0.9</scale></LabelStyle></Style>
<Style id="s_shop"><IconStyle><color>ffB4479C</color><scale>1.1</scale><Icon><href>https://maps.google.com/mapfiles/kml/shapes/shopping.png</href></Icon></IconStyle><LabelStyle><scale>0.9</scale></LabelStyle></Style>
<Style id="s_stay"><IconStyle><color>ff43A047</color><scale>1.1</scale><Icon><href>https://maps.google.com/mapfiles/kml/shapes/lodging.png</href></Icon></IconStyle><LabelStyle><scale>0.9</scale></LabelStyle></Style>
<Style id="s_air"><IconStyle><color>ff707070</color><scale>1.1</scale><Icon><href>https://maps.google.com/mapfiles/kml/shapes/airports.png</href></Icon></IconStyle><LabelStyle><scale>0.9</scale></LabelStyle></Style>
<Folder><name>명소</name>
<Placemark><name>가오슝 대중음악센터(高雄流行音樂中心)</name><description>평점 ★ 4.7 · 6,428 · 지역 옌청푸 · 머무는 시간 약 1.0시간
가는 법 — 경전철 음악센터역
항구변 조형 건축. 밤 조명이 좋아 저녁 동선에 넣기 좋음
구글 지도에서 열기: https://www.google.com/maps/search/?api=1&amp;query=22.6174409,120.2884249</description><styleUrl>#s_see</styleUrl><Point><coordinates>120.2884249,22.6174409,0</coordinates></Point></Placemark>
<Placemark><name>불광산 불타기념관(佛光山)</name><description>평점 ★ 4.6 · 39,591 · 지역 다수 · 머무는 시간 약 4.0시간
가는 법 — 쭤잉역에서 E02 버스 40분
동양 최대급 불교 성지. 대불과 박물관 규모가 압도적. 반나절 이상 필요
구글 지도에서 열기: https://www.google.com/maps/search/?api=1&amp;query=22.7549492,120.447387</description><styleUrl>#s_see</styleUrl><Point><coordinates>120.447387,22.7549492,0</coordinates></Point></Placemark>
<Placemark><name>치진 등대(旗後燈塔)</name><description>평점 ★ 4.6 · 5,302 · 지역 치진 · 머무는 시간 약 1.0시간
가는 법 — 치진 페리 → 도보 15분 오르막
흰 등대에서 항구가 한눈에 들어옵니다. 치허우 포대와 한 언덕이라 같이 올라가세요
구글 지도에서 열기: https://www.google.com/maps/search/?api=1&amp;query=22.6155918,120.2650699</description><styleUrl>#s_see</styleUrl><Point><coordinates>120.2650699,22.6155918,0</coordinates></Point></Placemark>
<Placemark><name>가오슝 시립도서관</name><description>평점 ★ 4.6 · 4,930 · 지역 첸전 · 머무는 시간 약 1.0시간
가는 법 — MRT 산둬상권역 도보 10분
기둥 없이 매달린 구조의 도서관. 야간 조명이 특히 예쁨
구글 지도에서 열기: https://www.google.com/maps/search/?api=1&amp;query=22.6104438,120.3017989</description><styleUrl>#s_see</styleUrl><Point><coordinates>120.3017989,22.6104438,0</coordinates></Point></Placemark>
<Placemark><name>대항교(다강차오)</name><description>평점 ★ 4.6 · 4,242 · 지역 옌청푸 · 머무는 시간 약 0.5시간
가는 법 — 경전철 다이한차오역
아시아 최초 수평 회전교. 개폐 시간을 맞춰 가야 볼거리가 됨
구글 지도에서 열기: https://www.google.com/maps/search/?api=1&amp;query=22.6178831,120.2838745</description><styleUrl>#s_see</styleUrl><Point><coordinates>120.2838745,22.6178831,0</coordinates></Point></Placemark>
<Placemark><name>알리엔 아트센터(金馬賓館)</name><description>평점 ★ 4.6 · 2,064 · 지역 구산 · 머무는 시간 약 1.5시간
가는 법 — MRT 하마싱역(Hamasen) 도보 10분
옛 군인 숙소를 고친 미술관. 2층 카페가 이 건물의 백미라 카페 목록에도 넣어 뒀습니다
구글 지도에서 열기: https://www.google.com/maps/search/?api=1&amp;query=22.6275814,120.2788598</description><styleUrl>#s_see</styleUrl><Point><coordinates>120.2788598,22.6275814,0</coordinates></Point></Placemark>
<Placemark><name>싼펑궁(三鳳宮) — Sunfong Temple</name><description>평점 ★ 4.6 · 지역 싼민 · 머무는 시간 약 0.7시간
가는 법 — 가오슝역 도보권 · 리우허 야시장에서 가깝습니다
실제 여행기 두 건에 연달아 나온 큰 도교 사원. 밤에 조명이 들어와 리우허 야시장 가는 길에 들르는 코스로 자주 묶입니다
구글 지도에서 열기: https://www.google.com/maps/search/?api=1&amp;query=22.6360043,120.2940987</description><styleUrl>#s_see</styleUrl><Point><coordinates>120.2940987,22.6360043,0</coordinates></Point></Placemark>
<Placemark><name>가오슝시립미술관</name><description>평점 ★ 4.5 · 11,502 · 지역 미술관 · 머무는 시간 약 2.0시간
가는 법 — 경전철 미술관역
공원 안의 큰 미술관. 실내라 비 오는 날 대안으로 좋습니다
구글 지도에서 열기: https://www.google.com/maps/search/?api=1&amp;query=22.6566968,120.2865511</description><styleUrl>#s_see</styleUrl><Point><coordinates>120.2865511,22.6566968,0</coordinates></Point></Placemark>
<Placemark><name>소우산 연인 전망대(壽山情人觀景台)</name><description>평점 ★ 4.5 · 8,616 · 지역 구산 · 머무는 시간 약 1.0시간
가는 법 — MRT 옌청푸역에서 택시 10분
가오슝 야경 1순위. 항구와 85빌딩이 한 화면에 들어옵니다. 해 지기 30분 전에 올라가세요
구글 지도에서 열기: https://www.google.com/maps/search/?api=1&amp;query=22.6254253,120.2741481</description><styleUrl>#s_see</styleUrl><Point><coordinates>120.2741481,22.6254253,0</coordinates></Point></Placemark>
<Placemark><name>치허우 포대(旗後砲台)</name><description>평점 ★ 4.5 · 3,162 · 지역 치진 · 머무는 시간 약 0.7시간
가는 법 — 등대와 같은 언덕
청나라 때 포대 터. 등대 가는 길에 붙어 있어 묶어서 봅니다
구글 지도에서 열기: https://www.google.com/maps/search/?api=1&amp;query=22.613027,120.2641059</description><styleUrl>#s_see</styleUrl><Point><coordinates>120.2641059,22.613027,0</coordinates></Point></Placemark>
<Placemark><name>보얼예술특구(駁二藝術特區)</name><description>평점 ★ 4.4 · 71,747 · 지역 옌청푸 · 머무는 시간 약 3.0시간
가는 법 — MRT 옌청푸역 1번 출구 도보 6분
항만 창고를 개조한 문화예술구. 소품샵·포토존이 넓게 퍼져 있어 경전철로 구간 이동
구글 지도에서 열기: https://www.google.com/maps/search/?api=1&amp;query=22.6199803,120.2815287</description><styleUrl>#s_see</styleUrl><Point><coordinates>120.2815287,22.6199803,0</coordinates></Point></Placemark>
<Placemark><name>빛의 돔(光之穹頂) — 메이리다오역</name><description>평점 ★ 4.4 · 4,621 · 지역 메이리다오 · 머무는 시간 약 0.3시간
가는 법 — MRT 미려도역 구내
세계 최대 유리 공공미술 빛의 돔(光之穹頂). 역 안이라 5분이면 봄
구글 지도에서 열기: https://www.google.com/maps/search/?api=1&amp;query=22.6313652,120.3019167</description><styleUrl>#s_see</styleUrl><Point><coordinates>120.3019167,22.6313652,0</coordinates></Point></Placemark>
<Placemark><name>가오슝시립역사박물관</name><description>평점 ★ 4.4 · 4,579 · 지역 옌청푸 · 머무는 시간 약 1.0시간
가는 법 — MRT 옌청푸역 도보 5분
일제강점기 시청 건물. 무료이고 건물 자체가 사진이 잘 나옵니다
구글 지도에서 열기: https://www.google.com/maps/search/?api=1&amp;query=22.6269501,120.2867994</description><styleUrl>#s_see</styleUrl><Point><coordinates>120.2867994,22.6269501,0</coordinates></Point></Placemark>
<Placemark><name>시쯔완 일몰</name><description>평점 ★ 4.4 · 1,800 · 지역 시쯔완 · 머무는 시간 약 1.5시간
가는 법 — MRT 하마싱역(Hamasen) + 셔틀
가오슝 최고의 일몰. 10월 말 일몰은 17:20 전후라 시간을 앞당겨야 함
구글 지도에서 열기: https://www.google.com/maps/search/?api=1&amp;query=22.6176929,120.2659149</description><styleUrl>#s_see</styleUrl><Point><coordinates>120.2659149,22.6176929,0</coordinates></Point></Placemark>
<Placemark><name>아이허 사랑의 강(愛河) — Love River</name><description>평점 ★ 4.4 · 1,422 · 지역 첸진 · 머무는 시간 약 1.0시간
가는 법 — 핀은 구글이 잡은 강 지점입니다 — 야경 산책은 보얼예술특구~대중음악센터 하류 구간
한국 일정 여섯 개 중 셋에 나옵니다. 해 지고 강변을 걷는 게 전부인 곳이라 저녁 동선에 끼워 넣기 좋습니다. 유람선도 있습니다
구글 지도에서 열기: https://www.google.com/maps/search/?api=1&amp;query=22.6529037,120.3054076</description><styleUrl>#s_see</styleUrl><Point><coordinates>120.3054076,22.6529037,0</coordinates></Point></Placemark>
<Placemark><name>롄츠탄 용호탑(蓮池潭 龍虎塔)</name><description>평점 ★ 4.3 · 20,738 · 지역 쭤잉 · 머무는 시간 약 2.0시간
가는 법 — MRT 생태공원역 2번 출구 + 유바이크
가오슝 대표 사진 스팟. 용 입으로 들어가 호랑이 입으로 나오는 게 순서. 춘추각까지 묶어서
구글 지도에서 열기: https://www.google.com/maps/search/?api=1&amp;query=22.680507,120.292376</description><styleUrl>#s_see</styleUrl><Point><coordinates>120.292376,22.680507,0</coordinates></Point></Placemark>
<Placemark><name>치진 해수욕장</name><description>평점 ★ 4.3 · 7,401 · 지역 치진 · 머무는 시간 약 3.0시간
가는 법 — 구산 페리 7분
자전거로 해안도로 한 바퀴가 정석. 무지개 교회·해산물 거리·등대
구글 지도에서 열기: https://www.google.com/maps/search/?api=1&amp;query=22.6101746,120.2669211</description><styleUrl>#s_see</styleUrl><Point><coordinates>120.2669211,22.6101746,0</coordinates></Point></Placemark>
<Placemark><name>치진 별빛 터널(星空隧道)</name><description>평점 ★ 4.3 · 4,986 · 지역 치진 · 머무는 시간 약 0.3시간
가는 법 — 치진 옛거리 서쪽 끝
야광 벽화가 있는 짧은 해안 터널. 자전거로 지나가기 좋습니다
구글 지도에서 열기: https://www.google.com/maps/search/?api=1&amp;query=22.6126605,120.2645727</description><styleUrl>#s_see</styleUrl><Point><coordinates>120.2645727,22.6126605,0</coordinates></Point></Placemark>
<Placemark><name>춘추각(春秋閣)</name><description>평점 ★ 4.3 · 4,891 · 지역 쭤잉 · 머무는 시간 약 0.5시간
가는 법 — 롄츠탄 용호탑에서 도보 10분
용을 타고 있는 관음상. 용호탑과 한 세트로 봅니다
구글 지도에서 열기: https://www.google.com/maps/search/?api=1&amp;query=22.6822687,120.2927297</description><styleUrl>#s_see</styleUrl><Point><coordinates>120.2927297,22.6822687,0</coordinates></Point></Placemark>
<Placemark><name>치진 옛거리(旗津老街)</name><description>평점 ★ 4.2 · 27,661 · 지역 치진 · 머무는 시간 약 1.0시간
가는 법 — 페리에서 내리면 바로
해산물집과 간식 노점이 이어지는 거리. 치진 일정의 중심입니다
구글 지도에서 열기: https://www.google.com/maps/search/?api=1&amp;query=22.6133492,120.2686345</description><styleUrl>#s_see</styleUrl><Point><coordinates>120.2686345,22.6133492,0</coordinates></Point></Placemark>
<Placemark><name>치진 풍차공원</name><description>평점 ★ 4.2 · 10,350 · 지역 치진 · 머무는 시간 약 0.8시간
가는 법 — 치진 옛거리에서 자전거 15분
바다 옆 풍력발전기와 잔디밭. 치진 자전거 코스의 종점
구글 지도에서 열기: https://www.google.com/maps/search/?api=1&amp;query=22.5883126,120.2843378</description><styleUrl>#s_see</styleUrl><Point><coordinates>120.2843378,22.5883126,0</coordinates></Point></Placemark>
<Placemark><name>다카오 철도이야기관</name><description>평점 ★ 4.2 · 3,340 · 지역 하마싱 · 머무는 시간 약 0.8시간
가는 법 — 경전철 하마싱역 앞
옛 기차역과 넓은 잔디밭. 보얼예술특구와 이어져 있어 걸어서 넘어갑니다
구글 지도에서 열기: https://www.google.com/maps/search/?api=1&amp;query=22.6216869,120.2755422</description><styleUrl>#s_see</styleUrl><Point><coordinates>120.2755422,22.6216869,0</coordinates></Point></Placemark>
<Placemark><name>85빌딩 전망대</name><description>평점 ★ 4.1 · 13,282 · 지역 첸전 · 머무는 시간 약 1.0시간
가는 법 — MRT 산둬상권역 도보 10분
74층 전망대. 야경은 소우산 전망대가 낫지만, 비 오는 날엔 여기가 답입니다
구글 지도에서 열기: https://www.google.com/maps/search/?api=1&amp;query=22.6116938,120.3001305</description><styleUrl>#s_see</styleUrl><Point><coordinates>120.3001305,22.6116938,0</coordinates></Point></Placemark>
<Placemark><name>치진 무지개 교회(彩虹教堂)</name><description>평점 ★ 4.1 · 8,158 · 지역 치진 · 머무는 시간 약 0.5시간
가는 법 — 치진 해변 남쪽 · 자전거 10분
바다를 배경으로 한 포토존. 평점은 4.1로 높지 않지만 사진은 확실히 남습니다
구글 지도에서 열기: https://www.google.com/maps/search/?api=1&amp;query=22.6023263,120.2734327</description><styleUrl>#s_see</styleUrl><Point><coordinates>120.2734327,22.6023263,0</coordinates></Point></Placemark>
<Placemark><name>중앙공원</name><description>평점 ★★ · 지역 중앙공원 · 머무는 시간 약 0.8시간
가는 법 — MRT 중앙공원역 직결
도심 속 열대 공원. 저녁 산책 코스
구글 지도에서 열기: https://www.google.com/maps/search/?api=1&amp;query=22.62486,120.301067</description><styleUrl>#s_see</styleUrl><Point><coordinates>120.301067,22.62486,0</coordinates></Point></Placemark>
<Placemark><name>다거우 영국영사관(打狗英國領事館)</name><description>평점 ★★ · 지역 시쯔완 · 머무는 시간 약 1.5시간
가는 법 — 시쯔완 언덕
옛 영국 영사관에서 항구를 내려다봄. 일몰과 묶어서 보는 코스
구글 지도에서 열기: https://www.google.com/maps/search/?api=1&amp;query=22.618284,120.267214</description><styleUrl>#s_see</styleUrl><Point><coordinates>120.267214,22.618284,0</coordinates></Point></Placemark>
<Placemark><name>구산 페리 선착장</name><description>평점 ★★ · 지역 구산 · 머무는 시간 약 0.3시간
가는 법 — MRT 시쯔완역 도보 8분
치진 가는 페리. 자전거를 들고 탈 수 있음
구글 지도에서 열기: https://www.google.com/maps/search/?api=1&amp;query=22.619895,120.270012</description><styleUrl>#s_see</styleUrl><Point><coordinates>120.270012,22.619895,0</coordinates></Point></Placemark>
<Placemark><name>웨이우잉 예술문화센터(衛武營)</name><description>평점 ★★ · 지역 펑산 · 머무는 시간 약 1.5시간
가는 법 — MRT 웨이우잉역
거대한 곡면 건축. 실내라 날씨와 무관하고 사진이 잘 나옴
구글 지도에서 열기: https://www.google.com/maps/search/?api=1&amp;query=22.622919,120.342398</description><styleUrl>#s_see</styleUrl><Point><coordinates>120.342398,22.622919,0</coordinates></Point></Placemark>
<Placemark><name>청칭호</name><description>평점 ★ · 지역 냐오쑹 · 머무는 시간 약 2.5시간
가는 법 — MRT 웨이우잉역 + 버스
호수 공원. 한적하게 걷기 좋지만 접근이 번거로움
구글 지도에서 열기: https://www.google.com/maps/search/?api=1&amp;query=22.660663,120.351092</description><styleUrl>#s_see</styleUrl><Point><coordinates>120.351092,22.660663,0</coordinates></Point></Placemark>
<Placemark><name>다둥 문화예술센터</name><description>평점 ★ · 지역 펑산 · 머무는 시간 약 1.0시간
가는 법 — MRT 다둥역 도보 3분
우산 모양 막 구조물. 사진 명소지만 시내에서 다소 떨어짐
구글 지도에서 열기: https://www.google.com/maps/search/?api=1&amp;query=22.624405,120.363577</description><styleUrl>#s_see</styleUrl><Point><coordinates>120.363577,22.624405,0</coordinates></Point></Placemark>
</Folder>
<Folder><name>맛집</name>
<Placemark><name>청씨 푸젠 볶음면 루이펑 본점(曾氏福建炒麵)</name><description>평점 ★ 4.9 · 7,527 · 지역 루이펑 · 머무는 시간 약 0.7시간
가는 법 — 루이펑 야시장 안 · 아레나역 도보 5분
한국 여행기에 자주 나오는 곳. 푸젠식 볶음면 한 그릇이 야시장 물가입니다. 평점 4.9에 후기 7,500건은 가오슝 통틀어 최상위입니다
구글 지도에서 열기: https://www.google.com/maps/search/?api=1&amp;query=22.66609,120.30003</description><styleUrl>#s_food</styleUrl><Point><coordinates>120.30003,22.66609,0</coordinates></Point></Placemark>
<Placemark><name>산터우취안청 미술관점(汕頭泉成)</name><description>평점 ★ 4.8 · 9,431 · 지역 미술관 · 머무는 시간 약 1.5시간
가는 법 — 경전철 미술관역 인근
본점이 붐빌 때 대안. 평점은 여기가 더 높습니다
구글 지도에서 열기: https://www.google.com/maps/search/?api=1&amp;query=22.6512546,120.2858332</description><styleUrl>#s_food</styleUrl><Point><coordinates>120.2858332,22.6512546,0</coordinates></Point></Placemark>
<Placemark><name>칭무탕 링야점(青木堂) — 일식</name><description>평점 ★ 4.8 · 8,390 · 지역 링야 · 머무는 시간 약 1.5시간
가는 법 — MRT 신이궈샤오역 인근
현지인 평이 아주 좋은 일식집. 노포 웨이팅이 부담스러운 날의 대안
구글 지도에서 열기: https://www.google.com/maps/search/?api=1&amp;query=22.622788,120.3177723</description><styleUrl>#s_food</styleUrl><Point><coordinates>120.3177723,22.622788,0</coordinates></Point></Placemark>
<Placemark><name>밍수이란 산둬점(明水然・樂)</name><description>평점 ★ 4.8 · 3,988 · 지역 산둬 · 머무는 시간 약 1.5시간
가는 법 — MRT 산둬상권역 직결
백화점 상권 안이라 4인 자리 잡기 쉽습니다. 쇼핑 날 저녁으로
구글 지도에서 열기: https://www.google.com/maps/search/?api=1&amp;query=22.6144461,120.3067782</description><styleUrl>#s_food</styleUrl><Point><coordinates>120.3067782,22.6144461,0</coordinates></Point></Placemark>
<Placemark><name>저이샤오궈(這一小鍋) — 1인 훠궈</name><description>평점 ★ 4.8 · 1,534 · 지역 산둬 · 머무는 시간 약 1.2시간
가는 법 — SOGO 백화점 안
1인 1냄비라 매운맛을 각자 고를 수 있습니다. 훠궈가 처음인 동행이 있으면 여기
구글 지도에서 열기: https://www.google.com/maps/search/?api=1&amp;query=22.6144169,120.306338</description><styleUrl>#s_food</styleUrl><Point><coordinates>120.306338,22.6144169,0</coordinates></Point></Placemark>
<Placemark><name>Handelaars (치진 카페바)</name><description>평점 ★ 4.8 · 1,004 · 지역 치진 · 머무는 시간 약 1.0시간
가는 법 — 치진 등대 아래
치진에서 평점이 가장 높은 집. 바다 보며 쉬어가기
구글 지도에서 열기: https://www.google.com/maps/search/?api=1&amp;query=22.6121254,120.2666889</description><styleUrl>#s_food</styleUrl><Point><coordinates>120.2666889,22.6121254,0</coordinates></Point></Placemark>
<Placemark><name>산터우취안청 사차훠궈 중산총점(汕頭泉成)</name><description>평점 ★ 4.7 · 19,864 · 지역 메이리다오 · 머무는 시간 약 1.5시간
가는 법 — MRT 미려도역 도보 3분
가오슝에서 후기가 가장 많은 식당입니다(약 2만 건). 사차(沙茶) 소스 훠궈가 이 도시의 상징. 4인이면 저녁 예약을 권합니다
구글 지도에서 열기: https://www.google.com/maps/search/?api=1&amp;query=22.6319059,120.3012799</description><styleUrl>#s_food</styleUrl><Point><coordinates>120.3012799,22.6319059,0</coordinates></Point></Placemark>
<Placemark><name>저우스번푸 브런치(周氏本舖)</name><description>평점 ★ 4.7 · 1,356 · 지역 링야 · 머무는 시간 약 1.0시간
가는 법 — MRT 신이궈샤오역 인근 · 오후 3시 마감
늦은 아침용. 오후 3시에 닫으니 오전에 가세요
구글 지도에서 열기: https://www.google.com/maps/search/?api=1&amp;query=22.6272673,120.3099755</description><styleUrl>#s_food</styleUrl><Point><coordinates>120.3099755,22.6272673,0</coordinates></Point></Placemark>
<Placemark><name>천사 지파이(天使雞排)</name><description>평점 ★ 4.7 · 6,952 · 지역 루이펑 · 머무는 시간 약 0.3시간
가는 법 — 루이펑 야시장 안
얼굴만 한 대만식 닭튀김. 야시장에서 줄이 가장 긴 집 중 하나입니다
구글 지도에서 열기: https://www.google.com/maps/search/?api=1&amp;query=22.66588,120.29924</description><styleUrl>#s_food</styleUrl><Point><coordinates>120.29924,22.66588,0</coordinates></Point></Placemark>
<Placemark><name>뉴왕러후시 우육면(牛忘了呼吸)</name><description>평점 ★ 4.6 · 1,559 · 지역 첸진 · 머무는 시간 약 0.8시간
가는 법 — MRT 첸진역 인근
노포 우육면과 결이 다른 신식. 국물이 진합니다
구글 지도에서 열기: https://www.google.com/maps/search/?api=1&amp;query=22.6266688,120.2926706</description><styleUrl>#s_food</styleUrl><Point><coordinates>120.2926706,22.6266688,0</coordinates></Point></Placemark>
<Placemark><name>리우제 판투안(六姐) — 주먹밥</name><description>평점 ★ 4.5 · 1,217 · 지역 옌청푸 · 머무는 시간 약 0.3시간
가는 법 — 옌청푸
대만식 주먹밥. 아침에 하나 들고 걸으면서 먹기 좋습니다
구글 지도에서 열기: https://www.google.com/maps/search/?api=1&amp;query=22.6243588,120.2844255</description><styleUrl>#s_food</styleUrl><Point><coordinates>120.2844255,22.6243588,0</coordinates></Point></Placemark>
<Placemark><name>라오정싱 총유빙(老正興館金牌蔥油餅)</name><description>평점 ★ 4.5 · 1,632 · 지역 옌청 · 머무는 시간 약 0.3시간
가는 법 — 리우허 야시장에서 도보권
파를 넣고 부친 대만식 전병. 갓 부친 걸 그 자리에서 먹는 게 제맛입니다
구글 지도에서 열기: https://www.google.com/maps/search/?api=1&amp;query=22.63095,120.28891</description><styleUrl>#s_food</styleUrl><Point><coordinates>120.28891,22.63095,0</coordinates></Point></Placemark>
<Placemark><name>옌청 왕지 더우화(王記豆花)</name><description>평점 ★ 4.5 · 1,256 · 지역 옌청 · 머무는 시간 약 0.3시간
가는 법 — MRT 옌청푸역 도보 4분
손으로 만드는 더우화(두부 푸딩). 옌청 노포 골목 한복판입니다
구글 지도에서 열기: https://www.google.com/maps/search/?api=1&amp;query=22.62539,120.28229</description><styleUrl>#s_food</styleUrl><Point><coordinates>120.28229,22.62539,0</coordinates></Point></Placemark>
<Placemark><name>베이강차이 통자미가오(北港蔡)</name><description>평점 ★ 4.4 · 6,308 · 지역 옌청푸 · 머무는 시간 약 0.5시간
가는 법 — 옌청푸
대나무 통에 찐 찹쌀밥. 야로우전과 함께 옌청푸 아침의 양대산맥입니다
구글 지도에서 열기: https://www.google.com/maps/search/?api=1&amp;query=22.6319185,120.2850047</description><styleUrl>#s_food</styleUrl><Point><coordinates>120.2850047,22.6319185,0</coordinates></Point></Placemark>
<Placemark><name>뉘즈 자오쯔(女子餃子)</name><description>평점 ★ 4.4 · 1,486 · 지역 옌청 · 머무는 시간 약 0.7시간
가는 법 — MRT 옌청푸역 도보 5분
만두 전문점. 보얼예술특구를 보고 걸어 내려오면 바로입니다
구글 지도에서 열기: https://www.google.com/maps/search/?api=1&amp;query=22.62595,120.28182</description><styleUrl>#s_food</styleUrl><Point><coordinates>120.28182,22.62595,0</coordinates></Point></Placemark>
<Placemark><name>야로우전 오리고기(鴨肉珍)</name><description>평점 ★ 4.3 · 11,601 · 지역 옌청푸 · 머무는 시간 약 1.0시간
가는 법 — 옌청푸 다거우딩(大溝頂) 골목
오리고기 + 미가오(찹쌀밥). 가오슝 노포의 대표
구글 지도에서 열기: https://www.google.com/maps/search/?api=1&amp;query=22.6249317,120.2811655</description><styleUrl>#s_food</styleUrl><Point><coordinates>120.2811655,22.6249317,0</coordinates></Point></Placemark>
<Placemark><name>단단 햄버거 시쯔완점(丹丹漢堡)</name><description>평점 ★ 4.3 · 7,261 · 지역 하마싱 · 머무는 시간 약 0.5시간
가는 법 — MRT 하마싱역(Hamasen) 1번 출구
남부 대만에만 있는 체인. 햄버거에 몐셴(麵線)이 딸려 나오는 조합이 가오슝다운 경험입니다
구글 지도에서 열기: https://www.google.com/maps/search/?api=1&amp;query=22.6223566,120.2733317</description><styleUrl>#s_food</styleUrl><Point><coordinates>120.2733317,22.6223566,0</coordinates></Point></Placemark>
<Placemark><name>치허우하이찬(旗后海產) — 치진 해산물</name><description>평점 ★ 4.3 · 2,227 · 지역 치진 · 머무는 시간 약 1.3시간
가는 법 — 치진 옛거리
치진에서 후기가 가장 많은 해산물집. 주문 전에 총액을 반드시 물어보세요
구글 지도에서 열기: https://www.google.com/maps/search/?api=1&amp;query=22.6120193,120.2677697</description><styleUrl>#s_food</styleUrl><Point><coordinates>120.2677697,22.6120193,0</coordinates></Point></Placemark>
<Placemark><name>리자 위안짜이탕(李家圓仔湯)</name><description>평점 ★ 4.3 · 1,881 · 지역 옌청 · 머무는 시간 약 0.4시간
가는 법 — MRT 옌청푸역 도보 5분
대만식 새알심 단팥탕. 저녁 먹고 후식으로 들르기 좋습니다
구글 지도에서 열기: https://www.google.com/maps/search/?api=1&amp;query=22.6246,120.28185</description><styleUrl>#s_food</styleUrl><Point><coordinates>120.28185,22.6246,0</coordinates></Point></Placemark>
<Placemark><name>하이즈빙 빙수(渡船頭海之冰)</name><description>평점 ★ 4.3 · 지역 시쯔완 · 머무는 시간 약 0.5시간
가는 법 — MRT 하마싱역(Hamasen) · 구산 페리 선착장 근처
한국 여행기 단골. 대야만 한 그릇에 나오는 빙수라 넷이 하나 시켜 나눠 먹는 집입니다
구글 지도에서 열기: https://www.google.com/maps/search/?api=1&amp;query=22.6199,120.27106</description><styleUrl>#s_food</styleUrl><Point><coordinates>120.27106,22.6199,0</coordinates></Point></Placemark>
<Placemark><name>루이펑 야시장(瑞豐夜市)</name><description>평점 ★ 4.2 · 38,135 · 지역 아레나 · 머무는 시간 약 2.0시간
가는 법 — MRT 아레나역 1번 출구 · 17:00~24:00
현지인 비중이 훨씬 높고 규모도 큼. 월·수 휴무라 토요일이 딱
구글 지도에서 열기: https://www.google.com/maps/search/?api=1&amp;query=22.6660714,120.2996278</description><styleUrl>#s_food</styleUrl><Point><coordinates>120.2996278,22.6660714,0</coordinates></Point></Placemark>
<Placemark><name>강위안 우육면(港園牛肉麵)</name><description>평점 ★ 4.2 · 9,754 · 지역 옌청푸 · 머무는 시간 약 1.0시간
가는 법 — 보얼예술특구 도보권
가오슝 우육면 하면 나오는 이름. 점심에 줄이 김
구글 지도에서 열기: https://www.google.com/maps/search/?api=1&amp;query=22.6210904,120.2877845</description><styleUrl>#s_food</styleUrl><Point><coordinates>120.2877845,22.6210904,0</coordinates></Point></Placemark>
<Placemark><name>싱룽쥐 아침만두(興隆居)</name><description>평점 ★ 4.2 · 9,015 · 지역 첸진 · 머무는 시간 약 0.7시간
가는 법 — MRT 미려도역 도보 10분
아침 만두·두유. 오전에만 열고 줄이 길어 일찍 가야 함
구글 지도에서 열기: https://www.google.com/maps/search/?api=1&amp;query=22.6303772,120.2936811</description><styleUrl>#s_food</styleUrl><Point><coordinates>120.2936811,22.6303772,0</coordinates></Point></Placemark>
<Placemark><name>딩왕 마라훠궈(鼎王麻辣鍋)</name><description>평점 ★ 4.2 · 2,228 · 지역 산둬 · 머무는 시간 약 2.0시간
가는 법 — MRT 쭤잉/아레나 인근
대만 대표 마라훠궈 체인. 4인이면 예약이 안전합니다
구글 지도에서 열기: https://www.google.com/maps/search/?api=1&amp;query=22.662707,120.306742</description><styleUrl>#s_food</styleUrl><Point><coordinates>120.306742,22.662707,0</coordinates></Point></Placemark>
<Placemark><name>정라오파이 파파야 우유(鄭老牌木瓜牛奶)</name><description>평점 ★ 4.2 · 856 · 지역 리우허 · 머무는 시간 약 0.2시간
가는 법 — 리우허 야시장 안
한국 여행기 단골. 가오슝의 상징 음료인 파파야 우유를 파는 노포입니다
구글 지도에서 열기: https://www.google.com/maps/search/?api=1&amp;query=22.63274,120.3015</description><styleUrl>#s_food</styleUrl><Point><coordinates>120.3015,22.63274,0</coordinates></Point></Placemark>
<Placemark><name>아진 치에짜이몐(阿進切仔麵)</name><description>평점 ★ 4.2 · 3,682 · 지역 옌청 · 머무는 시간 약 0.7시간
가는 법 — MRT 옌청푸역 도보 4분
옌청 골목의 국수 노포. 후기 3,682건이면 현지에서 검증이 끝난 집입니다
구글 지도에서 열기: https://www.google.com/maps/search/?api=1&amp;query=22.62484,120.28262</description><styleUrl>#s_food</styleUrl><Point><coordinates>120.28262,22.62484,0</coordinates></Point></Placemark>
<Placemark><name>싼뉴 우육면(三牛牛肉麵)</name><description>평점 ★ 4.1 · 8,043 · 지역 쭤잉 · 머무는 시간 약 0.8시간
가는 법 — 롄츠탄 도보권
현지인이 채우는 우육면집. 용호탑 보고 걸어가기 좋습니다
구글 지도에서 열기: https://www.google.com/maps/search/?api=1&amp;query=22.6782066,120.2927427</description><styleUrl>#s_food</styleUrl><Point><coordinates>120.2927427,22.6782066,0</coordinates></Point></Placemark>
<Placemark><name>동펀왕(冬粉王) — 당면국·족발</name><description>평점 ★ 4.1 · 4,842 · 지역 옌청푸 · 머무는 시간 약 0.7시간
가는 법 — 치셴3로
강위안·야로우전과 한 구역이라 옌청푸 점심 코스로 묶기 좋습니다
구글 지도에서 열기: https://www.google.com/maps/search/?api=1&amp;query=22.6271961,120.2829129</description><styleUrl>#s_food</styleUrl><Point><coordinates>120.2829129,22.6271961,0</coordinates></Point></Placemark>
<Placemark><name>아차이 지쓰몐(阿財雞絲麵) — 닭국수</name><description>평점 ★ 4.1 · 2,959 · 지역 옌청푸 · 머무는 시간 약 0.5시간
가는 법 — 서우싱가
야식으로도 열려 있는 편입니다
구글 지도에서 열기: https://www.google.com/maps/search/?api=1&amp;query=22.6295732,120.2835225</description><styleUrl>#s_food</styleUrl><Point><coordinates>120.2835225,22.6295732,0</coordinates></Point></Placemark>
<Placemark><name>화다 밀크티(樺達奶茶)</name><description>평점 ★ 4.1 · 1,000 · 지역 옌청푸 · 머무는 시간 약 0.2시간
가는 법 — MRT 옌청푸역 도보 5분
가오슝 밀크티의 대명사. 줄이 길지만 회전이 빠릅니다. 테이크아웃 전용
구글 지도에서 열기: https://www.google.com/maps/search/?api=1&amp;query=22.6236461,120.2858037</description><styleUrl>#s_food</styleUrl><Point><coordinates>120.2858037,22.6236461,0</coordinates></Point></Placemark>
<Placemark><name>추이위안 딤섬(翠園) — 한라이 10층</name><description>평점 ★ 4.1 · 877 · 지역 산둬 · 머무는 시간 약 1.5시간
가는 법 — 그랜드 하이라이 호텔 10층
호텔 딤섬. 웨이팅 없이 4인이 앉을 수 있습니다
구글 지도에서 열기: https://www.google.com/maps/search/?api=1&amp;query=22.6194866,120.2966016</description><styleUrl>#s_food</styleUrl><Point><coordinates>120.2966016,22.6194866,0</coordinates></Point></Placemark>
<Placemark><name>라오장 홍차우유 본점(老江紅茶牛奶) — 24시간</name><description>평점 ★ 4.0 · 7,093 · 지역 메이리다오 · 머무는 시간 약 0.5시간
가는 법 — 난타이로 · 24시간 영업
홍차우유와 토스트. 야시장 후 마무리나 이른 아침에
구글 지도에서 열기: https://www.google.com/maps/search/?api=1&amp;query=22.6311182,120.300211</description><styleUrl>#s_food</styleUrl><Point><coordinates>120.300211,22.6311182,0</coordinates></Point></Placemark>
<Placemark><name>리우허 야시장(六合夜市)</name><description>평점 ★ 3.8 · 40,593 · 지역 메이리다오 · 머무는 시간 약 1.5시간
가는 법 — MRT 미려도역 11번 출구 · 매일 16:30~24:00
접근성 최고. 관광객 비중이 높지만 첫날 저녁으로는 최적
구글 지도에서 열기: https://www.google.com/maps/search/?api=1&amp;query=22.6320758,120.2991547</description><styleUrl>#s_food</styleUrl><Point><coordinates>120.2991547,22.6320758,0</coordinates></Point></Placemark>
</Folder>
<Folder><name>카페</name>
<Placemark><name>우링녠다이 커피(五零年代咖啡)</name><description>평점 ★ 4.9 · 719 · 지역 옌청푸 · 머무는 시간 약 0.8시간
가는 법 — 보얼예술특구 도보 5분
핸드드립 전문 자가배전. 조용하고 커피가 진짜입니다. 평점 4.9
구글 지도에서 열기: https://www.google.com/maps/search/?api=1&amp;query=22.6221474,120.2856719</description><styleUrl>#s_cafe</styleUrl><Point><coordinates>120.2856719,22.6221474,0</coordinates></Point></Placemark>
<Placemark><name>위스카페 us cafe 리우허점(隅室咖啡)</name><description>평점 ★ 4.8 · 4,216 · 지역 메이리다오 · 머무는 시간 약 1.0시간
가는 법 — MRT 미려도역 도보 5분 · 2층
가오슝 카페 중 후기가 가장 많고 평점도 최상위입니다. 리우허 야시장 가기 전에 쉬어가기 좋습니다
구글 지도에서 열기: https://www.google.com/maps/search/?api=1&amp;query=22.6312278,120.2962831</description><styleUrl>#s_cafe</styleUrl><Point><coordinates>120.2962831,22.6312278,0</coordinates></Point></Placemark>
<Placemark><name>진마 카페(金馬咖啡廳) — ALIEN ALL DAY</name><description>평점 ★ 4.8 · 569 · 지역 구산 · 머무는 시간 약 1.0시간
가는 법 — 알리엔 아트센터 2층
미술관 안 카페. 감성으로는 이 목록에서 1등입니다. 미술관 관람과 묶으세요
구글 지도에서 열기: https://www.google.com/maps/search/?api=1&amp;query=22.6277249,120.2788415</description><styleUrl>#s_cafe</styleUrl><Point><coordinates>120.2788415,22.6277249,0</coordinates></Point></Placemark>
<Placemark><name>Bing Top 빙수</name><description>평점 ★ 4.6 · 1,675 · 지역 중앙공원 · 머무는 시간 약 0.5시간
가는 법 — MRT 중앙공원역 인근
망고빙수. 시내 한복판이라 어떤 일정에도 끼워 넣기 쉽습니다
구글 지도에서 열기: https://www.google.com/maps/search/?api=1&amp;query=22.623301,120.3040114</description><styleUrl>#s_cafe</styleUrl><Point><coordinates>120.3040114,22.623301,0</coordinates></Point></Placemark>
<Placemark><name>푸취안빙뎬(福泉冰店)</name><description>평점 ★ 4.4 · 1,546 · 지역 하마싱 · 머무는 시간 약 0.5시간
가는 법 — 경전철 하마싱역 인근
푸딩 더우화와 눈꽃빙수. 치진 페리 타기 전후에 들르기 좋습니다
구글 지도에서 열기: https://www.google.com/maps/search/?api=1&amp;query=22.619745,120.2709025</description><styleUrl>#s_cafe</styleUrl><Point><coordinates>120.2709025,22.619745,0</coordinates></Point></Placemark>
<Placemark><name>망고하오망(芒果好忙)</name><description>평점 ★ 4.4 · 1,156 · 지역 아레나 · 머무는 시간 약 0.5시간
가는 법 — MRT 아레나역 인근
망고 전문. 루이펑 야시장 가는 날 낮에 들르기 좋습니다
구글 지도에서 열기: https://www.google.com/maps/search/?api=1&amp;query=22.6667369,120.3053023</description><styleUrl>#s_cafe</styleUrl><Point><coordinates>120.3053023,22.6667369,0</coordinates></Point></Placemark>
<Placemark><name>포포빙 본점(婆婆冰)</name><description>평점 ★ 4.2 · 3,242 · 지역 옌청푸 · 머무는 시간 약 0.7시간
가는 법 — 옌청푸 치셴3로 · 旗艦店
옌청푸 빙수 노포. 망고빙수가 간판이고 보얼예술특구 다녀와서 먹기 좋은 위치입니다
구글 지도에서 열기: https://www.google.com/maps/search/?api=1&amp;query=22.6250586,120.2817636</description><styleUrl>#s_cafe</styleUrl><Point><coordinates>120.2817636,22.6250586,0</coordinates></Point></Placemark>
</Folder>
<Folder><name>쇼핑</name>
<Placemark><name>드림몰(夢時代)</name><description>평점 ★ 4.5 · 72,368 · 지역 첸전 · 머무는 시간 약 4.0시간
가는 법 — MRT 카이쉬안(凱旋)역 → 경전철 멍스다이(夢時代)역
대만 최대 쇼핑몰. 옥상 관람차. 반나절 필요
구글 지도에서 열기: https://www.google.com/maps/search/?api=1&amp;query=22.5948656,120.3057541</description><styleUrl>#s_shop</styleUrl><Point><coordinates>120.3057541,22.5948656,0</coordinates></Point></Placemark>
<Placemark><name>한신 아레나 쇼핑플라자</name><description>평점 ★ 4.4 · 39,734 · 지역 아레나 · 머무는 시간 약 2.0시간
가는 법 — MRT 아레나역 직결
루이펑 야시장과 같은 역입니다. 야시장 열기 전에 시간 보내기 좋습니다
구글 지도에서 열기: https://www.google.com/maps/search/?api=1&amp;query=22.6698975,120.3029487</description><styleUrl>#s_shop</styleUrl><Point><coordinates>120.3029487,22.6698975,0</coordinates></Point></Placemark>
<Placemark><name>SKM Park 아울렛</name><description>평점 ★ 4.3 · 39,683 · 지역 차오야 · 머무는 시간 약 3.0시간
가는 법 — MRT 차오야역 직결
옛 다루거 초야도. 아울렛에 놀이시설이 붙어 있어 반나절 필요합니다
구글 지도에서 열기: https://www.google.com/maps/search/?api=1&amp;query=22.5825944,120.3293377</description><styleUrl>#s_shop</styleUrl><Point><coordinates>120.3293377,22.5825944,0</coordinates></Point></Placemark>
<Placemark><name>다위안바이 백화점(大遠百)</name><description>평점 ★ 4.2 · 19,860 · 지역 산둬 · 머무는 시간 약 1.5시간
가는 법 — MRT 산둬상권역 직결
산둬 상권 3대 백화점 중 하나. 신광미쓰코시와 붙어 있어 같이 봅니다
구글 지도에서 열기: https://www.google.com/maps/search/?api=1&amp;query=22.6127672,120.3043248</description><styleUrl>#s_shop</styleUrl><Point><coordinates>120.3043248,22.6127672,0</coordinates></Point></Placemark>
<Placemark><name>신광미쓰코시 산둬점(新光三越)</name><description>평점 ★ 4.1 · 6,553 · 지역 산둬 · 머무는 시간 약 2.0시간
가는 법 — MRT 산둬상권역 직결
백화점 식품관에서 차·펑리수를 사기 좋음
구글 지도에서 열기: https://www.google.com/maps/search/?api=1&amp;query=22.6145426,120.3067985</description><styleUrl>#s_shop</styleUrl><Point><coordinates>120.3067985,22.6145426,0</coordinates></Point></Placemark>
<Placemark><name>신쿠장 상권(新堀江商圈)</name><description>평점 ★ 4.0 · 14,583 · 지역 신싱 · 머무는 시간 약 1.5시간
가는 법 — MRT 중앙공원역 도보 3분
가오슝의 젊은 쇼핑 거리. 백화점보다 싸고 캐주얼한 옷·잡화·먹거리가 몰려 있습니다
구글 지도에서 열기: https://www.google.com/maps/search/?api=1&amp;query=22.62326,120.3019</description><styleUrl>#s_shop</styleUrl><Point><coordinates>120.3019,22.62326,0</coordinates></Point></Placemark>
<Placemark><name>난화 관광 야시장(南華觀光夜市)</name><description>평점 ★ 3.9 · 3,258 · 지역 가오슝역 · 머무는 시간 약 1.0시간
가는 법 — 가오슝역 도보 5분
먹거리보다 옷·잡화 쪽이 강한 쇼핑 야시장. 평점은 3.9로 높지 않지만 값이 쌉니다
구글 지도에서 열기: https://www.google.com/maps/search/?api=1&amp;query=22.63115,120.3029</description><styleUrl>#s_shop</styleUrl><Point><coordinates>120.3029,22.63115,0</coordinates></Point></Placemark>
<Placemark><name>산둬 상권(三多商圈)</name><description>평점 ★★★ · 지역 산둬 · 머무는 시간 약 2.5시간
가는 법 — MRT 산둬상권역
신광미쓰코시·SOGO·다위안바이가 한 블록에. 기념품 한 번에 끝내기 1순위
구글 지도에서 열기: https://www.google.com/maps/search/?api=1&amp;query=22.614153,120.304422</description><styleUrl>#s_shop</styleUrl><Point><coordinates>120.304422,22.614153,0</coordinates></Point></Placemark>
</Folder>
<Folder><name>숙소</name>
<Placemark><name>디 암니스(晶英國際行館) — THE AMNIS, a Luxury Collection Hotel · 구 실크스 클럽</name><description>평점 부킹 9.3 · 597 · 지역 산둬
가는 법 — THE AMNIS, a Luxury Collection Hotel, Kaohsiung · 산둬상권역(Sanduo Shopping District · R8) 직선 240m
1실 195.4만 / 2실 229.8만. 애하 강변 럭셔리 컬렉션. 스물여섯 곳 중 부킹 점수가 가장 높습니다
구글 지도에서 열기: https://www.google.com/maps/search/?api=1&amp;query=22.61062,120.3055</description><styleUrl>#s_stay</styleUrl><Point><coordinates>120.3055,22.61062,0</coordinates></Point></Placemark>
<Placemark><name>호텔 닛코 가오슝(日航酒店) — Hotel Nikko Kaohsiung</name><description>평점 부킹 9.2 · 1,152 · 지역 산둬
가는 법 — Hotel Nikko Kaohsiung · 산둬상권역(Sanduo Shopping District · R8) 직선 280m
2실 243.6만. 일본계 5성. 산둬상권 한복판이라 백화점·MRT가 다 걸어서 닿습니다
구글 지도에서 열기: https://www.google.com/maps/search/?api=1&amp;query=22.61001,120.30561</description><styleUrl>#s_stay</styleUrl><Point><coordinates>120.30561,22.61001,0</coordinates></Point></Placemark>
<Placemark><name>카인드니스 호텔 주밍관(康橋 覺民館) — Kindness Hotel - Jue Ming</name><description>평점 부킹 9.1 · 4,398 · 지역 싼민
가는 법 — Kindness Hotel - Jue Ming · 주요 역에서 1.2km 밖 — 버스·택시가 필요합니다
1·2실 82.4만 · 조식 포함. 무료 간식·야식으로 유명한 체인. 후기 4,400건에 9.1은 이 값에서 보기 드뭅니다
구글 지도에서 열기: https://www.google.com/maps/search/?api=1&amp;query=22.64001,120.33641</description><styleUrl>#s_stay</styleUrl><Point><coordinates>120.33641,22.64001,0</coordinates></Point></Placemark>
<Placemark><name>인터컨티넨탈 가오슝(洲際酒店) — InterContinental Kaohsiung</name><description>평점 부킹 9.1 · 959 · 지역 산둬
가는 법 — InterContinental Kaohsiung by IHG · 산둬상권역(Sanduo Shopping District · R8) 직선 40m
1실 224.2만 / 2실 384.9만. 가장 새 5성. 4인 1실이 되는 프리미엄 퀸룸이 있습니다
구글 지도에서 열기: https://www.google.com/maps/search/?api=1&amp;query=22.61095,120.30333</description><styleUrl>#s_stay</styleUrl><Point><coordinates>120.30333,22.61095,0</coordinates></Point></Placemark>
<Placemark><name>가오슝 메리어트(萬豪酒店) — Kaohsiung Marriott Hotel</name><description>평점 부킹 9.1 · 2,888 · 지역 구산
가는 법 — Kaohsiung Marriott Hotel · 주요 역에서 1.2km 밖 — 버스·택시가 필요합니다
1실 102.2만 / 2실은 스위트만 430.3만. 패밀리 게스트룸이 4인 1실 중 두 번째로 쌉니다. 대신 쭤잉 쪽이라 도심에서 멉니다
구글 지도에서 열기: https://www.google.com/maps/search/?api=1&amp;query=22.65493,120.30542</description><styleUrl>#s_stay</styleUrl><Point><coordinates>120.30542,22.65493,0</coordinates></Point></Placemark>
<Placemark><name>타이 어반 리조트(承億酒店) — TAI Urban Resort</name><description>평점 부킹 9.1 · 1,160 · 지역 산둬
가는 법 — TAI Urban Resort · 산둬상권역(Sanduo Shopping District · R8) 직선 250m
1실 190.4만 · 조식 포함. 디자인 호텔. 옥상 수영장이 있고 산둬상권 도보권입니다
구글 지도에서 열기: https://www.google.com/maps/search/?api=1&amp;query=22.6093,120.3023</description><styleUrl>#s_stay</styleUrl><Point><coordinates>120.3023,22.6093,0</coordinates></Point></Placemark>
<Placemark><name>파포아 하버 호텔(播寶後宮所) — PAPO'A Harbor Hotel</name><description>평점 부킹 9.1 · 1,062 · 지역 옌청
가는 법 — PAPO'A Harbor Hotel · 하마싱역(Hamasen · O1) 직선 530m
1실 97.8만 / 2실 186.7만. 복층 쿼드러플룸이 있는 항구변 부티크. 보얼예술특구 도보권
구글 지도에서 열기: https://www.google.com/maps/search/?api=1&amp;query=22.62047,120.28034</description><styleUrl>#s_stay</styleUrl><Point><coordinates>120.28034,22.62047,0</coordinates></Point></Placemark>
<Placemark><name>레전드 호텔 가오슝 피어2(麗馨旅店 駁二館) — Legend Hotel Kaohsiung Pier2</name><description>평점 부킹 9.0 · 4,360 · 지역 옌청
가는 법 — Legend Hotel Kaohsiung Pier2 · 옌청푸역(Yanchengpu · O2) 직선 50m
1·2실 54.0만 · 조식 포함. 보얼예술특구 바로 앞. 후기 4,360건에 9.0이고 값은 절반 이하입니다
구글 지도에서 열기: https://www.google.com/maps/search/?api=1&amp;query=22.62198,120.28655</description><styleUrl>#s_stay</styleUrl><Point><coordinates>120.28655,22.62198,0</coordinates></Point></Placemark>
<Placemark><name>허브 호텔 이신점(八里香舍 一心館) — Hub Hotel Kaohsiung Yisin Branch</name><description>평점 부킹 9.0 · 3,083 · 지역 첸전
가는 법 — Hub Hotel Kaohsiung Yisin Branch · 카이쉬안역(Kaisyuan · R6) 직선 570m
1실 48.0만 / 2실 48.8만 · 조식 포함. 스물여섯 곳 중 두 번째로 쌉니다. 패밀리룸이 조식까지 포함입니다
구글 지도에서 열기: https://www.google.com/maps/search/?api=1&amp;query=22.61039,120.31236</description><styleUrl>#s_stay</styleUrl><Point><coordinates>120.31236,22.61039,0</coordinates></Point></Placemark>
<Placemark><name>스타하우스 호텔(喜達絲飯店) — Starhaus Hotel</name><description>평점 부킹 9.0 · 545 · 지역 첸진
가는 법 — Starhaus Hotel · 중앙공원역(Central Park · R9) 직선 780m
1·2실 222.8만 · 조식 포함. 애하 근처 신축. 후기 수는 적지만 평이 고르게 좋습니다
구글 지도에서 열기: https://www.google.com/maps/search/?api=1&amp;query=22.62015,120.29549</description><styleUrl>#s_stay</styleUrl><Point><coordinates>120.29549,22.62015,0</coordinates></Point></Placemark>
<Placemark><name>호텔 인디고 중앙공원(英迪格酒店) — Hotel Indigo Kaohsiung Central Park</name><description>평점 부킹 8.9 · 708 · 지역 신싱
가는 법 — Hotel Indigo Kaohsiung Central Park by IHG · 중앙공원역(Central Park · R9) 직선 10m
1실 177.5만 / 2실 216.9만. 중앙공원역 도보 2분. 위치로는 스물여섯 곳 중 최상급입니다
구글 지도에서 열기: https://www.google.com/maps/search/?api=1&amp;query=22.62436,120.30141</description><styleUrl>#s_stay</styleUrl><Point><coordinates>120.30141,22.62436,0</coordinates></Point></Placemark>
<Placemark><name>로열그룹 모텔 펑산점(皇家 鳳山館) — Royal Group Motel Feng Shan Branch</name><description>평점 부킹 8.9 · 1,055 · 지역 펑산
가는 법 — Royal Group Motel Feng Shan Branch · 주요 역에서 1.2km 밖 — 버스·택시가 필요합니다
1·2실 58.9만 · 조식 포함. 대만식 자동차 여관(汽車旅館)이라 방이 아주 넓습니다. 대신 도심에서 멉니다
구글 지도에서 열기: https://www.google.com/maps/search/?api=1&amp;query=22.6134,120.3545</description><styleUrl>#s_stay</styleUrl><Point><coordinates>120.3545,22.6134,0</coordinates></Point></Placemark>
<Placemark><name>파포아 호텔(播寶舍旅) — PAPO'A Hotel</name><description>평점 부킹 8.8 · 2,003 · 지역 싼민
가는 법 — PAPO'A Hotel · 가오슝역(Kaohsiung Main Station · R11) 직선 130m
2실 107.9만. 가오슝역 도보권 부티크. 4인 1실은 없고 2실 조합만 됩니다
구글 지도에서 열기: https://www.google.com/maps/search/?api=1&amp;query=22.64072,120.30169</description><styleUrl>#s_stay</styleUrl><Point><coordinates>120.30169,22.64072,0</coordinates></Point></Placemark>
<Placemark><name>에어라인 인 가오슝역점(華園 車站館) — Airline Inn - Kaohsiung Station</name><description>평점 부킹 8.8 · 2,433 · 지역 싼민
가는 법 — Airline Inn - Kaohsiung Station · 가오슝역(Kaohsiung Main Station · R11) 직선 230m
1·2실 81.1만 · 조식 포함. 가오슝역 도보권. 디럭스 패밀리룸이 4인 1실입니다
구글 지도에서 열기: https://www.google.com/maps/search/?api=1&amp;query=22.63767,120.30132</description><styleUrl>#s_stay</styleUrl><Point><coordinates>120.30132,22.63767,0</coordinates></Point></Placemark>
<Placemark><name>허브 호텔 야완점(好地方大飯店) — Hub Hotel Kaohsiung Yawan Branch</name><description>평점 부킹 8.8 · 1,746 · 지역 링야
가는 법 — Hub Hotel Kaohsiung Yawan Branch · 산둬상권역(Sanduo Shopping District · R8) 직선 200m
1실 49.1만 · 조식 포함. 산둬상권 바로 옆인데 값은 스물여섯 곳 중 세 번째로 쌉니다
구글 지도에서 열기: https://www.google.com/maps/search/?api=1&amp;query=22.61268,120.30212</description><styleUrl>#s_stay</styleUrl><Point><coordinates>120.30212,22.61268,0</coordinates></Point></Placemark>
<Placemark><name>난난 즈위(南南之寓) — Nan Nan</name><description>평점 부킹 8.8 · 508 · 지역 신싱
가는 법 — Nan Nan · 메이리다오역(Formosa Boulevard · R10·O5) 직선 180m
1·2실 220.7만. 침실 3개·욕실 2개짜리 119㎡ 복층 한 채를 통째로 씁니다. 넷이 가장 편한 구조
구글 지도에서 열기: https://www.google.com/maps/search/?api=1&amp;query=22.63263,120.30316</description><styleUrl>#s_stay</styleUrl><Point><coordinates>120.30316,22.63263,0</coordinates></Point></Placemark>
<Placemark><name>호텔 코지 중산관(和逸飯店 中山館) — Hotel COZZI Zhongshan Kaohsiung</name><description>평점 부킹 8.7 · 1,704 · 지역 산둬
가는 법 — Hotel COZZI Zhongshan Kaohsiung · 산둬상권역(Sanduo Shopping District · R8) 직선 290m
1·2실 87.9만 · 조식 포함(창문 있는 방 93.2만). 구글 평점은 4.8에 후기 1만 4천 건으로 가오슝 1위입니다
구글 지도에서 열기: https://www.google.com/maps/search/?api=1&amp;query=22.613303,120.305113</description><styleUrl>#s_stay</styleUrl><Point><coordinates>120.305113,22.613303,0</coordinates></Point></Placemark>
<Placemark><name>CU 호텔 가오슝역점(希有巢旅) — CU Hotel Kaohsiung</name><description>평점 부킹 8.7 · 2,275 · 지역 싼민
가는 법 — CU Hotel Kaohsiung · 가오슝역(Kaohsiung Main Station · R11) 직선 120m
1·2실 63.2만. 가오슝역 도보권. 쿼드러플룸이 60만원대입니다
구글 지도에서 열기: https://www.google.com/maps/search/?api=1&amp;query=22.6406,120.30169</description><styleUrl>#s_stay</styleUrl><Point><coordinates>120.30169,22.6406,0</coordinates></Point></Placemark>
<Placemark><name>더 하워드 플라자(福華大飯店) — The Howard Plaza Hotel Kaohsiung</name><description>평점 부킹 8.7 · 1,280 · 지역 신싱
가는 법 — The Howard Plaza Hotel Kaohsiung · 메이리다오역(Formosa Boulevard · R10·O5) 직선 720m
2실 408.9만 · 조식 포함. 오래된 5성. 스위트만 남아 값이 크게 뜁니다
구글 지도에서 열기: https://www.google.com/maps/search/?api=1&amp;query=22.63401,120.3083</description><styleUrl>#s_stay</styleUrl><Point><coordinates>120.3083,22.63401,0</coordinates></Point></Placemark>
<Placemark><name>진스후 호텔(金獅湖大酒店) — Jin Shi Hu Hotel</name><description>평점 부킹 8.7 · 1,570 · 지역 싼민
가는 법 — Jin Shi Hu Hotel · 주요 역에서 1.2km 밖 — 버스·택시가 필요합니다
1·2실 60.6만 · 조식 포함. 진스후 호수 옆. 값은 싸지만 MRT 에서 멀어 택시를 써야 합니다
구글 지도에서 열기: https://www.google.com/maps/search/?api=1&amp;query=22.66322,120.32774</description><styleUrl>#s_stay</styleUrl><Point><coordinates>120.32774,22.66322,0</coordinates></Point></Placemark>
<Placemark><name>EZ STAY 옌청(自由宿 鹽埕館) — EZ STAY Yancheng</name><description>평점 부킹 8.7 · 450 · 지역 옌청
가는 법 — EZ STAY Yancheng · 옌청푸역(Yanchengpu · O2) 직선 200m
1실 63.4만 / 2실 93.5만. 보얼예술특구·노포 골목 한가운데. 후기 수가 적은 편입니다
구글 지도에서 열기: https://www.google.com/maps/search/?api=1&amp;query=22.62152,120.28425</description><styleUrl>#s_stay</styleUrl><Point><coordinates>120.28425,22.62152,0</coordinates></Point></Placemark>
<Placemark><name>파인 호텔 산둬점(三多好地方大飯店) — Fine Hotel</name><description>평점 부킹 8.6 · 2,012 · 지역 링야
가는 법 — Fine Hotel · 산둬상권역(Sanduo Shopping District · R8) 직선 120m
1실 36.1만 / 2실 56.8만. 스물여섯 곳 중 가장 쌉니다. 산둬상권 도보권이고 후기도 2,012건입니다
구글 지도에서 열기: https://www.google.com/maps/search/?api=1&amp;query=22.61189,120.30233</description><styleUrl>#s_stay</styleUrl><Point><coordinates>120.30233,22.61189,0</coordinates></Point></Placemark>
<Placemark><name>시티스위트 체나이(城市商旅 真愛館) — City Suites - Kaohsiung Chenai</name><description>평점 부킹 8.5 · 3,497 · 지역 옌청
가는 법 — City Suites - Kaohsiung Chenai · 옌청푸역(Yanchengpu · O2) 직선 360m
1실 87.7~98.6만 / 2실 129.3만. 애하 강변. 쿼드러플룸이 항구 전망까지 골라집니다
구글 지도에서 열기: https://www.google.com/maps/search/?api=1&amp;query=22.6191,120.28506</description><styleUrl>#s_stay</styleUrl><Point><coordinates>120.28506,22.6191,0</coordinates></Point></Placemark>
<Placemark><name>H2O 호텔(水京棧國際酒店) — H2O HOTEL</name><description>평점 구글 ★ 4.5 · 5,683 · 지역 아레나
가는 법 — H2O HOTEL · 아레나역(Kaohsiung Arena · R14) 직선 410m
10/29~11/1 부킹닷컴 전 객실 매진(09-06 재확인). 물 테마 디자인 호텔
구글 지도에서 열기: https://www.google.com/maps/search/?api=1&amp;query=22.66272,120.30205</description><styleUrl>#s_stay</styleUrl><Point><coordinates>120.30205,22.66272,0</coordinates></Point></Placemark>
<Placemark><name>그랜드 하이라이(漢來大飯店) — Grand Hi Lai Hotel</name><description>평점 구글 ★ 4.4 · 9,330 · 지역 산둬
가는 법 — Grand Hi Lai Hotel · 중앙공원역(Central Park · R9) 직선 740m
10/29~11/1 부킹닷컴 전 객실 매진(09-06 재확인). 한라이 백화점과 붙어 있는 노포 5성
구글 지도에서 열기: https://www.google.com/maps/search/?api=1&amp;query=22.61952,120.29664</description><styleUrl>#s_stay</styleUrl><Point><coordinates>120.29664,22.61952,0</coordinates></Point></Placemark>
<Placemark><name>하버 10 호텔(鈞怡大飯店) — Harbour 10 Hotel</name><description>평점 구글 ★ 4.3 · 5,216 · 지역 옌청
가는 법 — Harbour 10 Hotel · 옌청푸역(Yanchengpu · O2) 직선 510m
10/29~11/1 부킹닷컴 전 객실 매진(09-06 재확인). 애하 강변. 러브피어 도보권
구글 지도에서 열기: https://www.google.com/maps/search/?api=1&amp;query=22.62198,120.29107</description><styleUrl>#s_stay</styleUrl><Point><coordinates>120.29107,22.62198,0</coordinates></Point></Placemark>
</Folder>
<Folder><name>공항 · 이동</name>
<Placemark><name>가오슝 국제공항(高雄國際機場) — Kaohsiung Intl Airport</name><description>지역 이동
도착 10/29 13:15 제주항공 7C6121 · 출발 11/1 17:00 티웨이 TW672. MRT 레드라인 R4
구글 지도에서 열기: https://www.google.com/maps/search/?api=1&amp;query=22.575,120.3519</description><styleUrl>#s_air</styleUrl><Point><coordinates>120.3519,22.575,0</coordinates></Point></Placemark>
<Placemark><name>김포공항 국제선 — Gimpo Intl</name><description>지역 이동
10/29 11:00 제주항공 7C6121. 집(가산디지털단지)에서 08:00 출발
구글 지도에서 열기: https://www.google.com/maps/search/?api=1&amp;query=37.5586,126.7944</description><styleUrl>#s_air</styleUrl><Point><coordinates>126.7944,37.5586,0</coordinates></Point></Placemark>
<Placemark><name>인천공항 — Incheon Intl</name><description>지역 이동
11/1 20:45 티웨이 TW672 도착. 21:30 버스로 가산디지털단지
구글 지도에서 열기: https://www.google.com/maps/search/?api=1&amp;query=37.4602,126.4407</description><styleUrl>#s_air</styleUrl><Point><coordinates>126.4407,37.4602,0</coordinates></Point></Placemark>
</Folder>
</Document></kml>